NORAD_CAT_ID,OBJECT_NAME,OBJECT_TYPE,EPOCH,MEAN_MOTION,ECCENTRICITY,INCLINATION,RA_OF_ASC_NODE,ARG_OF_PERICENTER,MEAN_ANOMALY,BSTAR,MEAN_MOTION_DOT,MEAN_MOTION_DDOT,TLE_LINE0,TLE_LINE1,TLE_LINE2,SEMIMAJOR_AXIS,PERIOD,APOGEE,PERIGEE,DECAYED
53840.0,STARLINK-4766,PAYLOAD,2024-01-19 11:12:24,15.08840921,0.0001231,53.2155,196.7366,82.8909,277.2223,7.4505e-05,8.98e-06,0.0,0 STARLINK-4766,1 53840U 22114Y   24019.46694600  .00000898  00000-0  74505-4 0  9991,2 53840  53.2155 196.7366 0001231  82.8909 277.2223 15.08840921 75188,6917.878,95.437,540.594,538.891,0.0
53840.0,STARLINK-4766,PAYLOAD,2024-01-19 20:44:42,15.08846916,0.0001305,53.2163,194.9528,87.5431,272.5711,0.00011488,1.541e-05,0.0,0 STARLINK-4766,1 53840U 22114Y   24019.86438002  .00001541  00000-0  11488-3 0  9993,2 53840  53.2163 194.9528 0001305  87.5431 272.5711 15.08846916 75248,6917.859,95.437,540.627,538.821,0.0
53840.0,STARLINK-4766,PAYLOAD,2024-01-20 19:00:06,15.08841218,0.0001352,53.2169,190.7879,92.082,268.0327,4.4549e-05,4.21e-06,0.0,0 STARLINK-4766,1 53840U 22114Y   24020.79174547  .00000421  00000-0  44549-4 0  9999,2 53840  53.2169 190.7879 0001352  92.0820 268.0327 15.08841218 74840,6917.877,95.437,540.677,538.806,0.0
53840.0,STARLINK-4766,PAYLOAD,2024-01-21 20:26:16,15.08850387,0.0001374,53.2167,186.0316,86.4395,273.6755,4.6354e-05,4.5e-06,0.0,0 STARLINK-4766,1 53840U 22114Y   24021.85157798  .00000450  00000-0  46354-4 0  9994,2 53840  53.2167 186.0316 0001374  86.4395 273.6755 15.08850387 75542,6917.849,95.437,540.664,538.763,0.0
53840.0,STARLINK-4766,PAYLOAD,2024-01-22 10:44:45,15.08839514,0.0001775,53.2181,183.3542,123.2341,236.8821,-3.9801e-06,-3.51e-06,0.0,0 STARLINK-4766,1 53840U 22114Y   24022.44774531 -.00000351  00000-0 -39801-5 0  9992,2 53840  53.2181 183.3542 0001775 123.2341 236.8821 15.08839514 75099,6917.882,95.438,540.975,538.519,0.0
53840.0,STARLINK-4766,PAYLOAD,2024-01-22 17:06:17,15.08841378,0.0001591,53.2184,182.164,111.414,248.7022,2.9991e-05,1.89e-06,0.0,0 STARLINK-4766,1 53840U 22114Y   24022.71270316  .00000189  00000-0  29991-4 0  9999,2 53840  53.2184 182.1640 0001591 111.4140 248.7022 15.08841378 75670,6917.876,95.437,540.842,538.641,0.0
53840.0,STARLINK-4766,PAYLOAD,2024-01-23 15:21:41,15.08841037,0.0001886,53.218,178.0021,121.219,238.8988,1.2701e-05,-8.6e-07,0.0,0 STARLINK-4766,1 53840U 22114Y   24023.64006399 -.00000086  00000-0  12701-4 0  9998,2 53840  53.2180 178.0021 0001886 121.2190 238.8988 15.08841037 75273,6917.877,95.437,541.047,538.438,0.0
53840.0,STARLINK-4766,PAYLOAD,2024-01-23 16:57:04,15.08840648,0.0001782,53.2179,177.7048,117.4001,242.7173,7.2511e-06,-1.73e-06,0.0,0 STARLINK-4766,1 53840U 22114Y   24023.70630407 -.00000173  00000-0  72511-5 0  9991,2 53840  53.2179 177.7048 0001782 117.4001 242.7173 15.08840648 75827,6917.878,95.438,540.976,538.511,0.0
53840.0,STARLINK-4766,PAYLOAD,2024-01-24 13:37:06,15.08834178,0.0001655,53.218,173.8402,115.2303,244.8861,5.272e-06,-2.04e-06,0.0,0 STARLINK-4766,1 53840U 22114Y   24024.56743088 -.00000204  00000-0  52720-5 0  9991,2 53840  53.2180 173.8402 0001655 115.2303 244.8861 15.08834178 75952,6917.898,95.438,540.908,538.618,0.0
53840.0,STARLINK-4766,PAYLOAD,2024-01-24 16:47:52,15.08835059,0.0001589,53.2179,173.2457,110.9929,249.1233,1.1204e-05,-1.1e-06,0.0,0 STARLINK-4766,1 53840U 22114Y   24024.69991070 -.00000110  00000-0  11204-4 0  9998,2 53840  53.2179 173.2457 0001589 110.9929 249.1233 15.08835059 75439,6917.895,95.438,540.86,538.661,0.0
53840.0,STARLINK-4766,PAYLOAD,2024-01-25 13:27:53,15.08836682,0.0001543,53.218,169.3817,115.834,244.2812,-4.9884e-05,-1.082e-05,0.0,0 STARLINK-4766,1 53840U 22114Y   24025.56103537 -.00001082  00000-0 -49884-4 0  9993,2 53840  53.2180 169.3817 0001543 115.8340 244.2812 15.08836682 76105,6917.891,95.438,540.823,538.688,0.0
53840.0,STARLINK-4766,PAYLOAD,2024-01-25 15:03:16,15.08832865,0.0001647,53.2181,169.0846,116.9306,243.1855,6.0515e-06,-1.92e-06,0.0,0 STARLINK-4766,1 53840U 22114Y   24025.62727566 -.00000192  00000-0  60515-5 0  9999,2 53840  53.2181 169.0846 0001647 116.9306 243.1855 15.08832865 76119,6917.902,95.438,540.907,538.628,0.0
53840.0,STARLINK-4766,PAYLOAD,2024-01-26 13:18:40,15.08837815,0.0001648,53.218,164.9245,122.7356,237.3796,7.8566e-05,9.62e-06,0.0,0 STARLINK-4766,1 53840U 22114Y   24026.55463292  .00000962  00000-0  78566-4 0  9993,2 53840  53.2180 164.9245 0001648 122.7356 237.3796 15.08837815 76250,6917.887,95.438,540.892,538.612,0.0
53840.0,STARLINK-4766,PAYLOAD,2024-01-26 18:04:49,15.08848173,0.0001299,53.2168,164.0221,90.5312,269.5829,0.00010797,1.431e-05,0.0,0 STARLINK-4766,1 53840U 22114Y   24026.75334624  .00001431  00000-0  10797-3 0  9994,2 53840  53.2168 164.0221 0001299  90.5312 269.5829 15.08848173 75743,6917.855,95.437,540.619,538.822,0.0
53840.0,STARLINK-4766,PAYLOAD,2024-01-27 13:09:27,15.08836158,0.0001421,53.2162,160.4531,82.1654,277.9499,1.5634e-05,-3.9e-07,0.0,0 STARLINK-4766,1 53840U 22114Y   24027.54823984 -.00000039  00000-0  15634-4 0  9994,2 53840  53.2162 160.4531 0001421  82.1654 277.9499 15.08836158 75863,6917.892,95.438,540.74,538.774,0.0
53840.0,STARLINK-4766,PAYLOAD,2024-01-27 14:44:51,15.08835832,0.0001419,53.217,160.1538,89.3995,270.7159,1.3615e-05,-7.1e-07,0.0,0 STARLINK-4766,1 53840U 22114Y   24027.61447978 -.00000071  00000-0  13615-4 0  9990,2 53840  53.2170 160.1538 0001419  89.3995 270.7159 15.08835832 76414,6917.893,95.438,540.74,538.776,0.0
53840.0,STARLINK-4766,PAYLOAD,2024-01-27 17:55:36,15.08848753,0.0001664,53.2164,159.5654,132.8954,227.2178,-4.2033e-06,-3.55e-06,0.0,0 STARLINK-4766,1 53840U 22114Y   24027.74695120 -.00000355  00000-0 -42033-5 0  9991,2 53840  53.2164 159.5654 0001664 132.8954 227.2178 15.08848753 75894,6917.854,95.437,540.87,538.568,0.0
53840.0,STARLINK-4766,PAYLOAD,2024-01-28 14:35:37,15.08848349,0.0001266,53.217,155.6991,100.8081,259.3053,1.3189e-05,-7.8e-07,0.0,0 STARLINK-4766,1 53840U 22114Y   24028.60807355 -.00000078  00000-0  13189-4 0  9992,2 53840  53.2170 155.6991 0001266 100.8081 259.3053 15.08848349 76560,6917.855,95.437,540.596,538.844,0.0
53840.0,STARLINK-4766,PAYLOAD,2024-01-28 17:46:22,15.08863888,9.75e-05,53.2173,155.1028,102.3766,257.7336,0.00012389,1.686e-05,0.0,0 STARLINK-4766,1 53840U 22114Y   24028.74053860  .00001686  00000-0  12389-3 0  9996,2 53840  53.2173 155.1028 0000975 102.3766 257.7336 15.08863888 76046,6917.807,95.436,540.347,538.998,0.0
53840.0,STARLINK-4766,PAYLOAD,2024-01-28 20:57:08,15.08866903,0.0001456,53.2168,154.5096,59.4651,300.6484,0.00017292,2.467e-05,0.0,0 STARLINK-4766,1 53840U 22114Y   24028.87301634  .00002467  00000-0  17292-3 0  9991,2 53840  53.2168 154.5096 0001456  59.4651 300.6484 15.08866903 76603,6917.798,95.436,540.67,538.656,0.0
53840.0,STARLINK-4766,PAYLOAD,2024-01-29 08:04:50,15.08858207,9.29e-05,53.2161,152.4232,107.586,252.5233,0.00012729,1.74e-05,0.0,0 STARLINK-4766,1 53840U 22114Y   24029.33669947  .00001740  00000-0  12729-3 0  9990,2 53840  53.2161 152.4232 0000929 107.5860 252.5233 15.08858207 76139,6917.825,95.436,540.332,539.047,0.0
53840.0,STARLINK-4766,PAYLOAD,2024-01-29 17:37:08,15.08868695,0.0001929,53.2166,150.6458,90.9663,269.155,0.0001829,2.626e-05,0.0,0 STARLINK-4766,1 53840U 22114Y   24029.73412862  .00002626  00000-0  18290-3 0  9999,2 53840  53.2166 150.6458 0001929  90.9663 269.1550 15.08868695 76195,6917.793,95.436,540.992,538.323,0.0
53840.0,STARLINK-4766,PAYLOAD,2024-01-30 11:06:25,15.0883343,0.0002225,53.216,147.3667,132.0524,228.0658,-0.00015094,-2.689e-05,0.0,0 STARLINK-4766,1 53840U 22114Y   24030.46279564 -.00002689  00000-0 -15094-3 0  9991,2 53840  53.2160 147.3667 0002225 132.0524 228.0658 15.08833430 76303,6917.9,95.438,541.305,538.226,0.0
53840.0,STARLINK-4766,PAYLOAD,2024-01-30 12:41:48,15.0883126,0.0002003,53.2156,147.0702,135.5728,224.5425,-0.00017024,-2.996e-05,0.0,0 STARLINK-4766,1 53840U 22114Y   24030.52903769 -.00002996  00000-0 -17024-3 0  9995,2 53840  53.2156 147.0702 0002003 135.5728 224.5425 15.08831260 76855,6917.907,95.438,541.158,538.386,0.0
53840.0,STARLINK-4766,PAYLOAD,2024-01-31 12:32:36,15.08834556,0.0002758,53.2162,142.6181,77.5462,282.5839,-0.0001081,-2.008e-05,0.0,0 STARLINK-4766,1 53840U 22114Y   24031.52264155 -.00002008  00000-0 -10810-3 0  9995,2 53840  53.2162 142.6181 0002758  77.5462 282.5839 15.08834556 76462,6917.897,95.438,541.67,537.854,0.0
53840.0,STARLINK-4766,PAYLOAD,2024-01-31 17:18:44,15.08843311,0.0002289,53.2169,141.7188,121.0086,239.1131,-0.0001673,-2.95e-05,0.0,0 STARLINK-4766,1 53840U 22114Y   24031.72135248 -.00002950  00000-0 -16730-3 0  9990,2 53840  53.2169 141.7188 0002289 121.0086 239.1131 15.08843311 76497,6917.87,95.437,541.319,538.152,0.0
53840.0,STARLINK-4766,PAYLOAD,2024-02-01 10:47:59,15.08826778,0.000187,53.2155,138.4471,127.8032,232.3129,0.00014786,2.065e-05,0.0,0 STARLINK-4766,1 53840U 22114Y   24032.44999664  .00002065  00000-0  14786-3 0  9994,2 53840  53.2155 138.4471 0001870 127.8032 232.3129 15.08826778 76603,6917.921,95.438,541.079,538.492,0.0
53840.0,STARLINK-4766,PAYLOAD,2024-02-01 12:23:22,15.0882815,0.0001853,53.2157,138.1499,126.3207,233.7957,0.00015887,2.24e-05,0.0,0 STARLINK-4766,1 53840U 22114Y   24032.51623642  .00002240  00000-0  15887-3 0  9990,2 53840  53.2157 138.1499 0001853 126.3207 233.7957 15.08828150 77152,6917.917,95.438,541.063,538.5,0.0
53840.0,STARLINK-4766,PAYLOAD,2024-02-02 12:14:10,15.08838858,0.0001668,53.2174,133.6922,111.3701,248.747,5.7456e-05,6.26e-06,0.0,0 STARLINK-4766,1 53840U 22114Y   24033.50983948  .00000626  00000-0  57456-4 0  9993,2 53840  53.2174 133.6922 0001668 111.3701 248.7470 15.08838858 76767,6917.884,95.438,540.903,538.595,0.0
53840.0,STARLINK-4766,PAYLOAD,2024-02-03 13:40:21,15.08835356,0.0001321,53.2159,128.9355,86.7473,273.367,3.7109e-05,3.03e-06,0.0,0 STARLINK-4766,1 53840U 22114Y   24034.56969871  .00000303  00000-0  37109-4 0  9994,2 53840  53.2159 128.9355 0001321  86.7473 273.3670 15.08835356 77468,6917.895,95.438,540.673,538.846,0.0
